STARLINK-1356_new
1 15564C 20025AK  21326.15659732  .00005864  00000-0  39283-3 0  3260
2 15564  53.0527 288.0355 0001832  63.2268 243.7903 15.06395184    11
STARLINK-1356_old
1 25564C 20025AK  21325.12500397  .00001841  00000-0  12336-3 0  3258
2 25564  53.0524 292.6666 0001714  63.1728  46.4081 15.06385677    14
